VICTUS HAZE PUMA        
1 69646U 26142A   26178.54607279  .00004004  00000+0  18422-3 0  9997
2 69646  97.4482  76.0519 0021030 290.2616  69.6359 15.20725325  1244
HOKUSHIN-1              
1 69648U 98067YH  26177.92573661  .00023930  00000+0  42215-3 0  9998
2 69648  51.6326 251.8488 0006229 258.3282 101.7008 15.50242635  1161
STARLINK-37656          
1 69649U 26143A   26178.50002315 -.02440591  15571-2 -83774-2 0  9999
2 69649  97.2845 221.8231 0001225  80.2743 341.7410 15.89824251  2124
STARLINK-37646          
1 69650U 26143B   26178.33335647 -.02709916  19843-2 -78665-2 0  9997
2 69650  97.2844 221.6465 0001577  89.8243 103.7542 15.93113663  2093
STARLINK-37749          
1 69651U 26143C   26178.50002315 -.02460133  16529-2 -68771-2 0  9990
2 69651  97.2846 221.8281 0001367  84.8771 349.1577 15.93828929  2128
STARLINK-37819          
1 69652U 26143D   26178.50002315 -.02512592  16691-2 -81179-2 0  9995
2 69652  97.2846 221.8264 0001283  80.7405 348.9309 15.91028200  2128
STARLINK-37729          
1 69653U 26143E   26178.50002315 -.02530564  17199-2 -75953-2 0  9992
2 69653  97.2848 221.8282 0001393  79.0514 355.3524 15.92466406  2121
STARLINK-37838          
1 69654U 26143F   26178.50002315 -.02667655  18873-2 -84174-2 0  9990
2 69654  97.2847 221.8271 0001247  82.2780 349.5593 15.91498034  2120
STARLINK-37884          
1 69655U 26143G   26178.50002315 -.01989985  10868-2 -59150-2 0  9995
2 69655  97.2846 221.8296 0001282  87.8855 349.6797 15.92610948  2128
STARLINK-37876          
1 69656U 26143H   26178.50002315 -.02589420  18210-2 -73668-2 0  9996
2 69656  97.2846 221.8306 0001296  72.9714   7.3319 15.93498534  2028
STARLINK-37784          
1 69657U 26143J   26178.50002315 -.02526743  17278-2 -73274-2 0  9992
2 69657  97.2848 221.8324 0001453  76.9613   7.8936 15.93129157  2020
STARLINK-37851          
1 69658U 26143K   26178.50002315 -.01558429  69158-3 -45286-2 0  9995
2 69658  97.2844 221.8317 0001174  75.8824   7.3325 15.92992449  2018
STARLINK-37229          
1 69659U 26143L   26178.50002315 -.02524762  16866-2 -81179-2 0  9998
2 69659  97.2845 221.8305 0001365  82.5025 358.2249 15.91123446  2067
STARLINK-37556          
1 69660U 26143M   26178.50002315 -.02562740  17534-2 -78864-2 0  9998
2 69660  97.2845 221.8321 0001236  81.4706   2.9912 15.91983309  2060
STARLINK-37867          
1 69661U 26143N   26178.50002315 -.01543242  68227-3 -43799-2 0  9999
2 69661  97.2843 221.8339 0001113  88.4131   0.0781 15.93443528  2026
STARLINK-37852          
1 69662U 26143P   26178.50002315 -.02480935  16444-2 -76592-2 0  9990
2 69662  97.2842 221.8333 0001295  81.4518   6.0494 15.91916956  2028
STARLINK-37554          
1 69663U 26143Q   26178.50002315 -.00576791  10900-3 -16498-2 0  9996
2 69663  97.2840 221.8356 0000969 105.3182 347.6234 15.93160476  2062
STARLINK-37830          
1 69664U 26143R   26178.50002315 -.02522394  17024-2 -77060-2 0  9994
2 69664  97.2839 221.8344 0001313  80.6317  10.1860 15.92122984  2010
STARLINK-37837          
1 69665U 26143S   26178.50002315 -.00581071  11055-3 -16598-2 0  9998
2 69665  97.2840 221.8364 0001001  94.4588   1.3007 15.93187840  2021
STARLINK-37943          
1 69666U 26143T   26178.50002315 -.02494366  16947-2 -70390-2 0  9995
2 69666  97.2842 221.8374 0001600  73.9234  23.6658 15.93649509  2024
STARLINK-37941          
1 69667U 26143U   26178.50002315 -.02619145  18677-2 -73621-2 0  9992
2 69667  97.2841 221.8372 0001293  88.2548   8.4883 15.93729285  2028
STARLINK-37930          
1 69668U 26143V   26178.50002315 -.01835618  94372-3 -51779-2 0  9994
2 69668  97.2842 221.8385 0001487  58.1840  41.7860 15.93599233  2012
STARLINK-37945          
1 69669U 26143W   26178.50002315 -.02558055  18023-2 -68432-2 0  9995
2 69669  97.2843 221.8397 0001500  81.4483  21.3411 15.94665734  2023
STARLINK-37948          
1 69670U 26143X   26178.50002315 -.00514078  90379-4 -12813-2 0  9990
2 69670  97.2842 221.8419 0000899  84.4871  23.4184 15.95755206  2028
STARLINK-37949          
1 69671U 26143Y   26178.50002315 -.00576350  11085-3 -15078-2 0  9994
2 69671  97.2841 221.8426 0000958  75.2045  34.5783 15.94856061  2021
STARLINK-37946          
1 69672U 26143Z   26178.50002315 -.01864197  98105-3 -50068-2 0  9991
2 69672  97.2842 221.8407 0001349  81.5822  23.4398 15.94536487  2026
TJS-26A                 
1 69674U 26144A   26174.32980920  .00009630 -16661-6  31526-3 0  9997
2 69674  19.5157 324.7456 7314561 179.7910 181.1077  2.27958502    21
