OBJECT_NAME,OBJECT_ID,EPOCH,MEAN_MOTION,ECCENTRICITY,INCLINATION,RA_OF_ASC_NODE,ARG_OF_PERICENTER,MEAN_ANOMALY,EPHEMERIS_TYPE,CLASSIFICATION_TYPE,NORAD_CAT_ID,ELEMENT_SET_NO,REV_AT_EPOCH,BSTAR,MEAN_MOTION_DOT,MEAN_MOTION_DDOT
VICTUS HAZE PUMA,2026-142A,2026-06-27T13:06:20.689056,15.20725325,.002103,97.4482,76.0519,290.2616,69.6359,0,U,69646,999,124,.18422E-3,.4004E-4,0
HOKUSHIN-1,1998-067YH,2026-06-26T22:13:03.643104,15.50242635,.00062292,51.6326,251.8488,258.3282,101.7008,0,U,69648,999,116,.42215392E-3,.2393E-3,0
STARLINK-37656,2026-143A,2026-06-27T12:00:02.000160,15.89824251,.0001225,97.2845,221.8231,80.2743,341.7410,0,U,69649,999,212,-.83774E-2,-.2440591E-1,.15571E-2
STARLINK-37646,2026-143B,2026-06-27T08:00:01.999008,15.93113663,.0001577,97.2844,221.6465,89.8243,103.7542,0,U,69650,999,209,-.78665E-2,-.2709916E-1,.19843E-2
STARLINK-37749,2026-143C,2026-06-27T12:00:02.000160,15.93828929,.0001367,97.2846,221.8281,84.8771,349.1577,0,U,69651,999,212,-.68771E-2,-.2460133E-1,.16529E-2
STARLINK-37819,2026-143D,2026-06-27T12:00:02.000160,15.91028200,.0001283,97.2846,221.8264,80.7405,348.9309,0,U,69652,999,212,-.81179E-2,-.2512592E-1,.16691E-2
STARLINK-37729,2026-143E,2026-06-27T12:00:02.000160,15.92466406,.0001393,97.2848,221.8282,79.0514,355.3524,0,U,69653,999,212,-.75953E-2,-.2530564E-1,.17199E-2
STARLINK-37838,2026-143F,2026-06-27T12:00:02.000160,15.91498034,.0001247,97.2847,221.8271,82.2780,349.5593,0,U,69654,999,212,-.84174E-2,-.2667655E-1,.18873E-2
STARLINK-37884,2026-143G,2026-06-27T12:00:02.000160,15.92610948,.0001282,97.2846,221.8296,87.8855,349.6797,0,U,69655,999,212,-.5915E-2,-.1989985E-1,.10868E-2
STARLINK-37876,2026-143H,2026-06-27T12:00:02.000160,15.93498534,.0001296,97.2846,221.8306,72.9714,7.3319,0,U,69656,999,202,-.73668E-2,-.258942E-1,.1821E-2
STARLINK-37784,2026-143J,2026-06-27T12:00:02.000160,15.93129157,.0001453,97.2848,221.8324,76.9613,7.8936,0,U,69657,999,202,-.73274E-2,-.2526743E-1,.17278E-2
STARLINK-37851,2026-143K,2026-06-27T12:00:02.000160,15.92992449,.0001174,97.2844,221.8317,75.8824,7.3325,0,U,69658,999,201,-.45286E-2,-.1558429E-1,.69158E-3
STARLINK-37229,2026-143L,2026-06-27T12:00:02.000160,15.91123446,.0001365,97.2845,221.8305,82.5025,358.2249,0,U,69659,999,206,-.81179E-2,-.2524762E-1,.16866E-2
STARLINK-37556,2026-143M,2026-06-27T12:00:02.000160,15.91983309,.0001236,97.2845,221.8321,81.4706,2.9912,0,U,69660,999,206,-.78864E-2,-.256274E-1,.17534E-2
STARLINK-37867,2026-143N,2026-06-27T12:00:02.000160,15.93443528,.0001113,97.2843,221.8339,88.4131,0.0781,0,U,69661,999,202,-.43799E-2,-.1543242E-1,.68227E-3
STARLINK-37852,2026-143P,2026-06-27T12:00:02.000160,15.91916956,.0001295,97.2842,221.8333,81.4518,6.0494,0,U,69662,999,202,-.76592E-2,-.2480935E-1,.16444E-2
STARLINK-37554,2026-143Q,2026-06-27T12:00:02.000160,15.93160476,.0000969,97.2840,221.8356,105.3182,347.6234,0,U,69663,999,206,-.16498E-2,-.576791E-2,.109E-3
STARLINK-37830,2026-143R,2026-06-27T12:00:02.000160,15.92122984,.0001313,97.2839,221.8344,80.6317,10.1860,0,U,69664,999,201,-.7706E-2,-.2522394E-1,.17024E-2
STARLINK-37837,2026-143S,2026-06-27T12:00:02.000160,15.93187840,.0001001,97.2840,221.8364,94.4588,1.3007,0,U,69665,999,202,-.16598E-2,-.581071E-2,.11055E-3
STARLINK-37943,2026-143T,2026-06-27T12:00:02.000160,15.93649509,.00016,97.2842,221.8374,73.9234,23.6658,0,U,69666,999,202,-.7039E-2,-.2494366E-1,.16947E-2
STARLINK-37941,2026-143U,2026-06-27T12:00:02.000160,15.93729285,.0001293,97.2841,221.8372,88.2548,8.4883,0,U,69667,999,202,-.73621E-2,-.2619145E-1,.18677E-2
STARLINK-37930,2026-143V,2026-06-27T12:00:02.000160,15.93599233,.0001487,97.2842,221.8385,58.1840,41.7860,0,U,69668,999,201,-.51779E-2,-.1835618E-1,.94372E-3
STARLINK-37945,2026-143W,2026-06-27T12:00:02.000160,15.94665734,.00015,97.2843,221.8397,81.4483,21.3411,0,U,69669,999,202,-.68432E-2,-.2558055E-1,.18023E-2
STARLINK-37948,2026-143X,2026-06-27T12:00:02.000160,15.95755206,.0000899,97.2842,221.8419,84.4871,23.4184,0,U,69670,999,202,-.12813E-2,-.514078E-2,.90379E-4
STARLINK-37949,2026-143Y,2026-06-27T12:00:02.000160,15.94856061,.0000958,97.2841,221.8426,75.2045,34.5783,0,U,69671,999,202,-.15078E-2,-.57635E-2,.11085E-3
STARLINK-37946,2026-143Z,2026-06-27T12:00:02.000160,15.94536487,.0001349,97.2842,221.8407,81.5822,23.4398,0,U,69672,999,202,-.50068E-2,-.1864197E-1,.98105E-3
TJS-26A,2026-144A,2026-06-23T07:54:55.514880,2.27958502,.73145613,19.5157,324.7456,179.7910,181.1077,0,U,69674,999,2,.31526459E-3,.963E-4,-.166614E-6
